{
  "type": "FeatureCollection",
  "features": [
    {
      "type": "Feature",
      "properties": {
        "norad_id": 38867,
        "name": "INTELSAT 23 (IS-23)",
        "group": "intelsat",
        "lat": 0.02212059696876918,
        "lon": -161.07994382083896,
        "alt_km": 35780.67981244835,
        "timestamp": "2025-12-09T11:33:54.468337+00:00",
        "meta_object_name": "INTELSAT 23 (IS-23)",
        "meta_object_id": "2012-057A",
        "meta_epoch": "2025-12-09T04:38:57.249024",
        "meta_mean_motion": 1.00260511,
        "meta_eccentricity": 0.0002044,
        "meta_inclination": 0.0419,
        "meta_ra_of_asc_node": 93.2966,
        "meta_arg_of_pericenter": 103.9407,
        "meta_mean_anomaly": 257.6748,
        "meta_ephemeris_type": 0,
        "meta_classification_type": "U",
        "meta_norad_cat_id": 38867,
        "meta_element_set_no": 999,
        "meta_rev_at_epoch": 4805,
        "meta_bstar": 0,
        "meta_mean_motion_dot": -2.83e-06,
        "meta_mean_motion_ddot": 0,
        "tle_line1": "1 38867U 12057A   25343.19371816 -.00000283  00000+0  00000+0 0  9992",
        "tle_line2": "2 38867   0.0419  93.2966 0002044 103.9407 257.6748  1.00260511 48059"
      },
      "geometry": {
        "type": "Point",
        "coordinates": [
          -161.07994382083896,
          0.02212059696876918
        ]
      }
    },
    {
      "type": "Feature",
      "properties": {
        "norad_id": 39360,
        "name": "FM-6",
        "group": "intelsat",
        "lat": 0.011658915942941142,
        "lon": 135.78304312858447,
        "alt_km": 35775.77072229263,
        "timestamp": "2025-12-09T11:33:54.468351+00:00",
        "meta_object_name": "FM-6",
        "meta_object_id": "2013-058A",
        "meta_epoch": "2025-12-09T01:36:38.760192",
        "meta_mean_motion": 1.00271481,
        "meta_eccentricity": 0.0003014,
        "meta_inclination": 0.0026,
        "meta_ra_of_asc_node": 36.2279,
        "meta_arg_of_pericenter": 134.4121,
        "meta_mean_anomaly": 175.4422,
        "meta_ephemeris_type": 0,
        "meta_classification_type": "U",
        "meta_norad_cat_id": 39360,
        "meta_element_set_no": 999,
        "meta_rev_at_epoch": 4416,
        "meta_bstar": 0,
        "meta_mean_motion_dot": -1.5e-07,
        "meta_mean_motion_ddot": 0,
        "tle_line1": "1 39360U 13058A   25343.06711528 -.00000015  00000+0  00000+0 0  9990",
        "tle_line2": "2 39360   0.0026  36.2279 0003014 134.4121 175.4422  1.00271481 44168"
      },
      "geometry": {
        "type": "Point",
        "coordinates": [
          135.78304312858447,
          0.011658915942941142
        ]
      }
    },
    {
      "type": "Feature",
      "properties": {
        "norad_id": 40271,
        "name": "INTELSAT 30 (IS-30)",
        "group": "intelsat",
        "lat": 0.01296956647049436,
        "lon": 156.905200990325,
        "alt_km": 35783.94039364833,
        "timestamp": "2025-12-09T11:33:54.468364+00:00",
        "meta_object_name": "INTELSAT 30 (IS-30)",
        "meta_object_id": "2014-062A",
        "meta_epoch": "2025-12-09T04:04:38.821728",
        "meta_mean_motion": 1.00272205,
        "meta_eccentricity": 0.000131,
        "meta_inclination": 0.013,
        "meta_ra_of_asc_node": 15.3198,
        "meta_arg_of_pericenter": 73.1869,
        "meta_mean_anomaly": 315.7647,
        "meta_ephemeris_type": 0,
        "meta_classification_type": "U",
        "meta_norad_cat_id": 40271,
        "meta_element_set_no": 999,
        "meta_rev_at_epoch": 487,
        "meta_bstar": 0,
        "meta_mean_motion_dot": -1.49e-06,
        "meta_mean_motion_ddot": 0,
        "tle_line1": "1 40271U 14062A   25343.16989377 -.00000149  00000+0  00000+0 0  9997",
        "tle_line2": "2 40271   0.0130  15.3198 0001310  73.1869 315.7647  1.00272205  4877"
      },
      "geometry": {
        "type": "Point",
        "coordinates": [
          156.905200990325,
          0.01296956647049436
        ]
      }
    },
    {
      "type": "Feature",
      "properties": {
        "norad_id": 40333,
        "name": "DIRECTV 14",
        "group": "intelsat",
        "lat": 0.0013475856493266915,
        "lon": 152.72388419634078,
        "alt_km": 35786.17158690734,
        "timestamp": "2025-12-09T11:33:54.468376+00:00",
        "meta_object_name": "DIRECTV 14",
        "meta_object_id": "2014-078B",
        "meta_epoch": "2025-12-09T04:26:37.402368",
        "meta_mean_motion": 1.00269626,
        "meta_eccentricity": 2.67e-05,
        "meta_inclination": 0.0173,
        "meta_ra_of_asc_node": 330.7931,
        "meta_arg_of_pericenter": 243.889,
        "meta_mean_anomaly": 190.9367,
        "meta_ephemeris_type": 0,
        "meta_classification_type": "U",
        "meta_norad_cat_id": 40333,
        "meta_element_set_no": 999,
        "meta_rev_at_epoch": 4013,
        "meta_bstar": 0,
        "meta_mean_motion_dot": -1.23e-06,
        "meta_mean_motion_ddot": 0,
        "tle_line1": "1 40333U 14078B   25343.18515512 -.00000123  00000+0  00000+0 0  9993",
        "tle_line2": "2 40333   0.0173 330.7931 0000267 243.8890 190.9367  1.00269626 40136"
      },
      "geometry": {
        "type": "Point",
        "coordinates": [
          152.72388419634078,
          0.0013475856493266915
        ]
      }
    },
    {
      "type": "Feature",
      "properties": {
        "norad_id": 40663,
        "name": "DIRECTV 15",
        "group": "intelsat",
        "lat": 0.03556060692781175,
        "lon": 149.07503807957025,
        "alt_km": 35787.86875882265,
        "timestamp": "2025-12-09T11:33:54.468388+00:00",
        "meta_object_name": "DIRECTV 15",
        "meta_object_id": "2015-026A",
        "meta_epoch": "2025-12-09T04:12:38.528352",
        "meta_mean_motion": 1.00268962,
        "meta_eccentricity": 3.18e-05,
        "meta_inclination": 0.0384,
        "meta_ra_of_asc_node": 80.3098,
        "meta_arg_of_pericenter": 206.6762,
        "meta_mean_anomaly": 111.4795,
        "meta_ephemeris_type": 0,
        "meta_classification_type": "U",
        "meta_norad_cat_id": 40663,
        "meta_element_set_no": 999,
        "meta_rev_at_epoch": 3855,
        "meta_bstar": 0,
        "meta_mean_motion_dot": -1e-06,
        "meta_mean_motion_ddot": 0,
        "tle_line1": "1 40663U 15026A   25343.17544593 -.00000100  00000+0  00000+0 0  9998",
        "tle_line2": "2 40663   0.0384  80.3098 0000318 206.6762 111.4795  1.00268962 38558"
      },
      "geometry": {
        "type": "Point",
        "coordinates": [
          149.07503807957025,
          0.03556060692781175
        ]
      }
    },
    {
      "type": "Feature",
      "properties": {
        "norad_id": 40664,
        "name": "SKY MEXICO-1",
        "group": "intelsat",
        "lat": 0.0169900826903877,
        "lon": 173.14784583673045,
        "alt_km": 35788.51827709854,
        "timestamp": "2025-12-09T11:33:54.468399+00:00",
        "meta_object_name": "SKY MEXICO-1",
        "meta_object_id": "2015-026B",
        "meta_epoch": "2025-12-09T03:29:27.712896",
        "meta_mean_motion": 1.00270818,
        "meta_eccentricity": 0.0002755,
        "meta_inclination": 0.0241,
        "meta_ra_of_asc_node": 59.8469,
        "meta_arg_of_pericenter": 213.987,
        "meta_mean_anomaly": 137.9066,
        "meta_ephemeris_type": 0,
        "meta_classification_type": "U",
        "meta_norad_cat_id": 40664,
        "meta_element_set_no": 999,
        "meta_rev_at_epoch": 3854,
        "meta_bstar": 0,
        "meta_mean_motion_dot": -2.32e-06,
        "meta_mean_motion_ddot": 0,
        "tle_line1": "1 40664U 15026B   25343.14545964 -.00000232  00000+0  00000+0 0  9995",
        "tle_line2": "2 40664   0.0241  59.8469 0002755 213.9870 137.9066  1.00270818 38548"
      },
      "geometry": {
        "type": "Point",
        "coordinates": [
          173.14784583673045,
          0.0169900826903877
        ]
      }
    },
    {
      "type": "Feature",
      "properties": {
        "norad_id": 40874,
        "name": "INTELSAT 34 (IS-34)",
        "group": "intelsat",
        "lat": -0.02514938480390458,
        "lon": -163.54603516928287,
        "alt_km": 35784.46893304062,
        "timestamp": "2025-12-09T11:33:54.468411+00:00",
        "meta_object_name": "INTELSAT 34 (IS-34)",
        "meta_object_id": "2015-039A",
        "meta_epoch": "2025-12-09T04:28:45.517152",
        "meta_mean_motion": 1.00269911,
        "meta_eccentricity": 5.69e-05,
        "meta_inclination": 0.0141,
        "meta_ra_of_asc_node": 304.9387,
        "meta_arg_of_pericenter": 227.2016,
        "meta_mean_anomaly": 277.7382,
        "meta_ephemeris_type": 0,
        "meta_classification_type": "U",
        "meta_norad_cat_id": 40874,
        "meta_element_set_no": 999,
        "meta_rev_at_epoch": 3772,
        "meta_bstar": 0,
        "meta_mean_motion_dot": -2.83e-06,
        "meta_mean_motion_ddot": 0,
        "tle_line1": "1 40874U 15039A   25343.18663793 -.00000283  00000+0  00000+0 0  9993",
        "tle_line2": "2 40874   0.0141 304.9387 0000569 227.2016 277.7382  1.00269911 37729"
      },
      "geometry": {
        "type": "Point",
        "coordinates": [
          -163.54603516928287,
          -0.02514938480390458
        ]
      }
    }
  ]
}